# From MPEC 2022-F14
C/2021 A2 (NEOWISE),e,106.9849,125.2047,338.7883,234.6612,0.0002742,0.99398249,0.0000,01/22.4595/2021,2000,g 13.5,4.0
# From MPEC 2022-ED3
C/2021 A4 (NEOWISE),e,111.5347,307.1125,204.7061,42.48864,0.0035587,0.97300004,0.0000,03/19.7870/2021,2000,g 16.0,4.0
# From MPEC 2021-BE3
P/2021 A5 (PANSTARRS),e,18.1842,328.7636,61.3275,3.047667,0.1852477,0.13990652,155.5002,03/02.0/2023,2000,g 15.0,4.0
# From MPEC 2023-BF4
C/2021 A6 (PANSTARRS),e,75.6056,164.0762,351.6442,9391,0.0000011,0.99915592,0.0000,05/03.3934/2021,2000,g  7.0,4.0
# From MPEC 2022-M88
C/2021 A7 (NEOWISE),e,78.1520,154.5074,356.0147,2475,0.0000080,0.99920557,0.0000,07/15.2088/2021,2000,g 10.0,4.0
# From MPEC 2023-D41
C/2021 A9 (PANSTARRS),h,12/01.5466/2023,158.0193,314.8415,211.4575,1.002389,7.760164,2000,6.0,4.0
# From MPEC 2021-N06
C/2021 A10 (NEOWISE),e,151.9187,188.6704,82.3553,88.02244,0.0011935,0.98566013,0.0000,03/15.1154/2021,2000,g 19.0,4.0
# From MPEC 2022-L66
C/2021 B2 (PANSTARRS),e,38.0857,120.5288,334.9735,359.6488,0.0001445,0.99301548,0.0000,05/04.3443/2021,2000,g 14.0,4.0
# From MPEC 2021-N06
C/2021 B3 (NEOWISE),e,119.4812,67.2852,293.5415,34.53739,0.0048559,0.93743717,3.5029,03/02.0/2023,2000,g 13.5,4.0
# From MPEC 2022-ED3
C/2021 C1 (Rankin),e,143.0453,186.8985,336.2465,11362,0.0000008,0.99969389,0.0000,12/06.9618/2020,2000,g 11.5,4.0
# From MPEC 2021-U31
P/2021 C2 (PANSTARRS),e,21.9344,66.4624,78.7294,9.534274,0.0334790,0.48733889,24.6532,03/02.0/2023,2000,g 12.0,4.0
# From MPEC 2021-N06
C/2021 C3 (Catalina),e,122.1648,181.9262,357.0827,62.10414,0.0020138,0.96337543,1.5059,03/02.0/2023,2000,g 14.0,4.0
# From MPEC 2022-M88
C/2021 C4 (ATLAS),h,01/17.0572/2021,132.8540,194.2780,320.2037,1.000013,4.502187,2000,9.0,4.0
# From MPEC 2023-D41
C/2021 C5 (PANSTARRS),e,50.7815,323.6826,270.9225,2454,0.0000081,0.99867900,0.0000,02/11.0779/2023,2000,g  9.0,4.0
# From MPEC 2022-YB4
C/2021 C6 (Lemmon),h,11/13.2839/2021,164.6255,332.1610,203.5809,1.001094,3.272220,2000,12.0,4.0
# From MPEC 2022-F14
C/2021 D1 (SWAN),e,31.4328,311.2432,72.2788,100.0078,0.0009855,0.99097841,0.0000,02/27.7353/2021,2000,g 13.0,4.0
# From MPEC 2022-YN2
C/2021 D2 (ZTF),h,02/03.9829/2022,83.8180,305.6790,125.0272,1.001712,2.946253,2000,9.0,4.0
# From MPEC 2022-UY9
A/2021 E2,e,167.4883,190.8216,342.3963,226.7384,0.0002887,0.98992156,0.0000,12/10.4029/2020,2000,g 15.0,2.0
# From MPEC 2023-D72
C/2021 E3 (ZTF),h,06/11.9069/2022,112.5517,104.4746,228.8514,1.000890,1.777383,2000,8.5,4.0
# From MPEC 2022-UY9
A/2021 E4,e,116.3610,171.1713,48.2622,601.4396,0.0000668,0.99222545,0.0000,04/25.1853/2022,2000,g 13.5,2.0
# From MPEC 2022-QD9
C/2021 F1 (Lemmon-PANSTARRS),e,107.3263,203.4530,146.8220,229.3691,0.0002837,0.99565938,0.0000,04/06.8480/2022,2000,g 13.5,4.0
# From MPEC 2021-J72
C/2021 G1 (Leonard),e,131.5496,270.6993,107.4537,74.20402,0.0015419,0.95386823,0.9066,03/02.0/2023,2000,g 14.0,4.0
# From MPEC 2023-D72
C/2021 G2 (ATLAS),e,48.4735,221.0977,343.3329,6091,0.0000021,0.99918224,0.0000,09/09.6890/2024,2000,g  5.5,4.0
# From MPEC 2022-X67
C/2021 G3 (PANSTARRS),h,10/18.2194/2021,102.8755,147.4091,10.6051,1.000309,5.180321,2000,10.5,4.0
# From MPEC 2021-Y10
P/2021 HS (PANSTARRS),e,12.1641,262.3839,46.1142,4.194651,0.1147256,0.80990006,65.7067,03/02.0/2023,2000,g 22.0,4.0
# From MPEC 2022-C56
C/2021 J1 (Maury-Attard),e,92.7213,88.3573,147.3266,26.39514,0.0072681,0.93404804,5.3827,03/02.0/2023,2000,g 15.5,4.0
# From MPEC 2023-C45
C/2021 J2 (PANSTARRS),e,156.2131,23.3349,172.0294,117.7605,0.0007713,0.96004264,0.4055,03/02.0/2023,2000,g 12.0,4.0
# From MPEC 2021-S45
P/2021 J3 (ATLAS),e,14.5341,111.1595,126.0299,8.933736,0.0369109,0.44934384,49.3387,03/02.0/2023,2000,g  7.0,4.0
# From MPEC 2022-O08
C/2021 K1 (ATLAS),e,16.2755,140.9048,184.2809,12.67537,0.0218405,0.80288434,14.5614,03/02.0/2023,2000,g 11.0,4.0
# From MPEC 2022-O01
C/2021 K2 (MASTER),h,09/09.4737/2021,100.8572,282.2512,343.3612,1.001093,5.467884,2000,8.0,4.0
# From MPEC 2022-L66
C/2021 K3 (Catalina),h,02/03.1200/2022,134.7812,114.4584,182.0482,1.003276,5.229976,2000,10.0,4.0
# From MPEC 2021-W31
P/2021 L2 (Leonard),e,21.0687,266.6572,51.5126,4.049208,0.1209620,0.52118284,70.8462,03/02.0/2023,2000,g 17.0,4.0
# From MPEC 2022-UE6
C/2021 L3 (Borisov),h,02/14.0032/2022,78.5781,344.9755,91.6078,1.003179,8.457927,2000,6.0,4.0
# From MPEC 2022-TA0
P/2021 N1 (ZTF),e,11.4989,301.1633,21.2225,2.977858,0.1917997,0.67645560,121.5144,03/02.0/2023,2000,g 19.0,4.0
# From MPEC 2023-D41
P/2021 N2 (Fuls),e,13.0615,221.7367,177.4327,6.937119,0.0539430,0.45256132,25.5262,03/02.0/2023,2000,g  9.5,4.0
# From MPEC 2022-YB4
C/2021 N3 (PANSTARRS),e,26.7405,337.4931,304.7637,153.3422,0.0005191,0.96272079,0.4798,03/02.0/2023,2000,g  8.5,4.0
# From MPEC 2022-A21
C/2021 O1 (Nishimura),e,27.5866,41.6187,74.4051,2340,0.0000087,0.99966422,0.0000,08/13.9908/2021,2000,g 10.5,4.0
# From MPEC 2022-L66
C/2021 O3 (PANSTARRS),h,04/21.0483/2022,56.7940,189.0173,299.9725,1.000069,0.287124,2000,10.5,4.0
# From MPEC 2022-CN4
C/2021 P1 (PANSTARRS),e,51.6366,359.6766,40.4559,2539,0.0000077,0.99827703,0.0000,06/02.3406/2022,2000,g 11.0,4.0
# From MPEC 2022-WQ9
C/2021 P2 (PANSTARRS),e,150.0635,32.0795,76.6906,2489,0.0000079,0.99796361,0.0000,01/22.7070/2023,2000,g  9.0,4.0
# From MPEC 2021-W31
P/2021 P3 (PANSTARRS),e,27.1616,358.2395,334.0995,4.412736,0.1063266,0.33917195,68.1309,03/02.0/2023,2000,g 14.0,4.0
# From MPEC 2023-A50
C/2021 P4 (ATLAS),e,56.3107,348.0924,175.8124,313.9362,0.0001772,0.99655867,0.0000,07/30.3599/2022,2000,g  9.5,4.0
# From MPEC 2023-C66
P/2021 PE20 (ATLAS),e,20.0112,99.6310,210.4645,3.745396,0.1359745,0.67037093,86.0688,03/02.0/2023,2000,g 17.0,4.0
# From MPEC 2023-D41
C/2021 Q3 (ATLAS),e,77.7650,307.9115,114.0988,75.58101,0.0015000,0.93113674,0.5997,03/02.0/2023,2000,g  8.0,4.0
# From MPEC 2023-BF4
C/2021 Q4 (Fuls),h,06/10.3412/2023,71.4737,183.3334,146.9890,1.003040,7.564920,2000,6.0,4.0
# From MPEC 2022-C56
P/2021 Q5 (ATLAS),e,10.7376,239.7521,180.9191,3.286552,0.1654221,0.62450026,90.7265,03/02.0/2023,2000,g 15.0,4.0
# From MPEC 2023-CD7
C/2021 Q6 (PANSTARRS),e,161.8473,133.5350,140.9347,29141,0.0000002,0.99970114,0.0000,03/23.5273/2024,2000,g  6.0,4.0
# From MPEC 2023-D41
C/2021 QM45 (PANSTARRS),e,22.8222,354.5897,72.8168,360.7012,0.0001439,0.99231111,0.0000,08/13.4812/2022,2000,g 11.0,4.0
# From MPEC 2022-X67
P/2021 R1 (PANSTARRS),e,5.5191,143.3521,220.3564,8.347578,0.0408661,0.41467244,17.9795,03/02.0/2023,2000,g 11.0,4.0
# From MPEC 2022-X67
C/2021 R2 (PANSTARRS),e,134.4814,16.2955,32.4312,2493,0.0000079,0.99706651,0.0000,12/26.7314/2021,2000,g  7.5,4.0
# From MPEC 2021-W31
P/2021 R3 (PANSTARRS),e,19.9281,304.2037,2.7968,3.772829,0.1344942,0.33114194,86.7340,03/02.0/2023,2000,g 16.0,4.0
# From MPEC 2021-W31
P/2021 R4 (Wierzchos),e,21.0367,321.2612,56.6779,5.621288,0.0739521,0.58602703,37.2683,03/02.0/2023,2000,g 16.0,4.0
# From MPEC 2022-Y15
P/2021 R5 (Rankin),e,7.8546,219.9580,167.4282,4.793697,0.0939070,0.30671899,38.8397,03/02.0/2023,2000,g 12.0,4.0
# From MPEC 2021-W31
P/2021 R6 (Groeller),e,34.9262,176.1156,220.7826,6.279113,0.0626407,0.59340408,30.4395,03/02.0/2023,2000,g 14.5,4.0
# From MPEC 2022-X67
C/2021 R7 (PANSTARRS),e,158.8471,170.1440,140.2750,868.0011,0.0000385,0.99348996,0.0000,04/16.5420/2021,2000,g 10.5,4.0
# From MPEC 2021-Y10
P/2021 R8 (Sheppard),e,2.2034,167.0266,190.8208,3.017639,0.1880196,0.29350547,95.9829,03/02.0/2023,2000,g 18.5,4.0
# From MPEC 2023-D72
C/2021 S1 (ATLAS),h,03/01.0573/2022,52.0748,299.8778,148.1926,1.001878,6.119319,2000,7.0,4.0
# From MPEC 2023-D72
C/2021 S3 (PANSTARRS),h,02/14.7377/2024,58.5334,215.6224,6.8733,1.000041,1.319937,2000,5.5,4.0
# From MPEC 2023-D72
C/2021 S4 (Tsuchinshan),e,17.4800,5.4968,72.7964,164.9823,0.0004651,0.95944707,359.8579,03/02.0/2023,2000,g  6.5,4.0
# From MPEC 2022-OB6
C/2021 T1 (Lemmon),e,140.3535,56.8308,51.5341,1304,0.0000209,0.99765399,0.0000,10/14.0954/2021,2000,g 12.5,4.0
# From MPEC 2023-A50
C/2021 T2 (Fuls),h,06/07.9067/2022,117.5343,223.2320,263.5985,1.000328,1.247739,2000,12.0,4.0
# From MPEC 2023-D72
C/2021 T4 (Lemmon),h,07/31.5173/2023,160.7760,257.8745,329.8035,1.000032,1.483298,2000,7.5,4.0
# From MPEC 2022-ED3
P/2021 U1 (Wierzchos),e,30.5548,246.7771,145.1038,8.521420,0.0396220,0.71295643,20.4806,03/02.0/2023,2000,g 14.5,4.0
# From MPEC 2022-L66
P/2021 U3 (Attard-Maury),e,69.9586,75.0989,335.2366,4.192565,0.1148112,0.54985479,56.6160,03/02.0/2023,2000,g 15.5,4.0
# From MPEC 2021-W31
C/2021 U4 (Leonard),e,152.8805,241.8100,237.2944,44.77314,0.0032899,0.96006641,1.4313,03/02.0/2023,2000,g 17.0,4.0
# From MPEC 2022-WQ9
C/2021 U5 (Catalina),e,39.0502,182.7543,321.4470,216.8293,0.0003087,0.98910381,0.0000,01/26.5776/2022,2000,g 13.0,4.0
# From MPEC 2022-CN4
C/2021 V1 (Rankin),e,71.4540,207.6537,195.1263,607.4989,0.0000658,0.99503903,0.0000,04/30.4238/2022,2000,g 13.0,4.0
# From MPEC 2023-D72
P/2021 V2 (Fuls),e,12.6941,232.2826,259.8285,9.058481,0.0361511,0.61399624,1.4315,03/02.0/2023,2000,g 10.0,4.0
# From MPEC 2023-D72
C/2021 X1 (Maury-Attard),h,05/27.4767/2023,140.1213,10.5851,334.6286,1.000226,3.233612,2000,7.0,4.0
# From MPEC 2023-A50
A/2021 X2,h,07/08.0761/2022,137.1608,228.8196,193.2826,1.001044,2.994305,2000,16.0,2.0
# From MPEC 2023-D72
C/2021 Y1 (ATLAS),h,04/30.7033/2023,77.1904,244.7702,245.8157,1.000866,2.032405,2000,7.0,4.0
# From MPEC 2022-YN2
C/2022 A1 (Sarneczky),e,116.5064,285.5267,201.2230,353.3502,0.0001484,0.99645417,0.0000,01/31.1452/2022,2000,g 18.0,4.0
# From MPEC 2023-D72
C/2022 A2 (PANSTARRS),h,02/18.2672/2023,108.1470,171.5795,88.3671,1.000321,1.735290,2000,9.5,4.0
# From MPEC 2023-D72
C/2022 A3 (Lemmon-ATLAS),e,88.3478,325.4831,234.8467,925.0637,0.0000350,0.99599655,0.0000,09/28.8406/2023,2000,g  8.0,4.0
# From MPEC 2022-K19
P/2022 B1 (Wierzchos),e,10.9901,148.8448,325.4736,5.466114,0.0771234,0.65307709,28.5087,03/02.0/2023,2000,g 16.5,4.0
# From MPEC 2022-YB4
A/2022 B3,e,132.0509,286.1825,150.6843,883.0441,0.0000376,0.99581168,0.0000,01/17.5458/2022,2000,g 16.5,2.0
# From MPEC 2022-GA9
